{"type": "FeatureCollection", "features": [ {"type": "Feature", "properties": {"norad_id": 30500, "name": "FENGYUN 1C DEB", "group": "fengyun-1c-debris", "lat": 35.97131820644036, "lon": -101.4460625566969, "alt_km": 759.2810204530806, "timestamp": "2025-12-06T14:35:37.402854+00:00", "meta": {"OBJECT_NAME": "FENGYUN 1C DEB", "OBJECT_ID": "1999-025AHN", "EPOCH": "2025-12-06T05:37:53.208768", "MEAN_MOTION": 14.25073158, "ECCENTRICITY": 0.00654766, "INCLINATION": 99.0734, "RA_OF_ASC_NODE": 71.5079, "ARG_OF_PERICENTER": 134.8238, "MEAN_ANOMALY": 253.744, "EPHEMERIS_TYPE": 0, "CLASSIFICATION_TYPE": "U", "NORAD_CAT_ID": 30500, "ELEMENT_SET_NO": 999, "REV_AT_EPOCH": 96589, "BSTAR": 0.0041058638, "MEAN_MOTION_DOT": 9.808e-05, "MEAN_MOTION_DDOT": 0}, "tle": {"line1": "1 30500U 99025AHN 25340.23464362  .00009808  00000+0  41059-2 0  9992", "line2": "2 30500  99.0734  71.5079 0065476 134.8238 253.7440 14.25073158965896"}}, "geometry": {"type": "Point", "coordinates": [-101.4460625566969, 35.97131820644036]}}, {"type": "Feature", "properties": {"norad_id": 30501, "name": "FENGYUN 1C DEB", "group": "fengyun-1c-debris", "lat": 80.25282042475177, "lon": -97.44405386081161, "alt_km": 820.5032198055951, "timestamp": "2025-12-06T14:35:37.402864+00:00", "meta": {"OBJECT_NAME": "FENGYUN 1C DEB", "OBJECT_ID": "1999-025AHP", "EPOCH": "2025-12-05T23:08:39.476256", "MEAN_MOTION": 14.25260894, "ECCENTRICITY": 0.00405047, "INCLINATION": 99.0836, "RA_OF_ASC_NODE": 330.5313, "ARG_OF_PERICENTER": 222.8448, "MEAN_ANOMALY": 162.8786, "EPHEMERIS_TYPE": 0, "CLASSIFICATION_TYPE": "U", "NORAD_CAT_ID": 30501, "ELEMENT_SET_NO": 999, "REV_AT_EPOCH": 96823, "BSTAR": 0.0028107177, "MEAN_MOTION_DOT": 6.627e-05, "MEAN_MOTION_DDOT": 0}, "tle": {"line1": "1 30501U 99025AHP 25339.96434579  .00006627  00000+0  28107-2 0  9993", "line2": "2 30501  99.0836 330.5313 0040504 222.8448 162.8786 14.25260894968234"}}, "geometry": {"type": "Point", "coordinates": [-97.44405386081161, 80.25282042475177]}}, {"type": "Feature", "properties": {"norad_id": 30503, "name": "FENGYUN 1C DEB", "group": "fengyun-1c-debris", "lat": 34.368395103632366, "lon": 10.289824143536174, "alt_km": 840.8798148108408, "timestamp": "2025-12-06T14:35:37.402874+00:00", "meta": {"OBJECT_NAME": "FENGYUN 1C DEB", "OBJECT_ID": "1999-025AHR", "EPOCH": "2025-12-06T07:56:45.870144", "MEAN_MOTION": 14.16114493, "ECCENTRICITY": 0.00083776, "INCLINATION": 99.2049, "RA_OF_ASC_NODE": 183.6366, "ARG_OF_PERICENTER": 286.244, "MEAN_ANOMALY": 247.5508, "EPHEMERIS_TYPE": 0, "CLASSIFICATION_TYPE": "U", "NORAD_CAT_ID": 30503, "ELEMENT_SET_NO": 999, "REV_AT_EPOCH": 97255, "BSTAR": 0.00050720817, "MEAN_MOTION_DOT": 9.55e-06, "MEAN_MOTION_DDOT": 0}, "tle": {"line1": "1 30503U 99025AHR 25340.33108646  .00000955  00000+0  50721-3 0  9997", "line2": "2 30503  99.2049 183.6366 0008377 286.2440 247.5508 14.16114493972553"}}, "geometry": {"type": "Point", "coordinates": [10.289824143536174, 34.368395103632366]}}, {"type": "Feature", "properties": {"norad_id": 30504, "name": "FENGYUN 1C DEB", "group": "fengyun-1c-debris", "lat": -78.16378482151833, "lon": 157.32833066086653, "alt_km": 759.9916960090623, "timestamp": "2025-12-06T14:35:37.402884+00:00", "meta": {"OBJECT_NAME": "FENGYUN 1C DEB", "OBJECT_ID": "1999-025AHS", "EPOCH": "2025-12-06T01:40:06.971232", "MEAN_MOTION": 14.20465991, "ECCENTRICITY": 0.01118655, "INCLINATION": 99.0268, "RA_OF_ASC_NODE": 26.1133, "ARG_OF_PERICENTER": 235.4421, "MEAN_ANOMALY": 153.8362, "EPHEMERIS_TYPE": 0, "CLASSIFICATION_TYPE": "U", "NORAD_CAT_ID": 30504, "ELEMENT_SET_NO": 999, "REV_AT_EPOCH": 97299, "BSTAR": 0.00084549629, "MEAN_MOTION_DOT": 1.885e-05, "MEAN_MOTION_DDOT": 0}, "tle": {"line1": "1 30504U 99025AHS 25340.06952513  .00001885  00000+0  84550-3 0  9998", "line2": "2 30504  99.0268  26.1133 0111865 235.4421 153.8362 14.20465991972992"}}, "geometry": {"type": "Point", "coordinates": [157.32833066086653, -78.16378482151833]}}, {"type": "Feature", "properties": {"norad_id": 30505, "name": "FENGYUN 1C DEB", "group": "fengyun-1c-debris", "lat": 51.26079806181047, "lon": -108.50734831083497, "alt_km": 843.9741837067922, "timestamp": "2025-12-06T14:35:37.402894+00:00", "meta": {"OBJECT_NAME": "FENGYUN 1C DEB", "OBJECT_ID": "1999-025AHT", "EPOCH": "2025-12-05T18:19:11.748288", "MEAN_MOTION": 14.2195601, "ECCENTRICITY": 0.00630396, "INCLINATION": 98.9271, "RA_OF_ASC_NODE": 59.3396, "ARG_OF_PERICENTER": 261.9625, "MEAN_ANOMALY": 224.5063, "EPHEMERIS_TYPE": 0, "CLASSIFICATION_TYPE": "U", "NORAD_CAT_ID": 30505, "ELEMENT_SET_NO": 999, "REV_AT_EPOCH": 96824, "BSTAR": 0.003198707, "MEAN_MOTION_DOT": 7.166e-05, "MEAN_MOTION_DDOT": 0}, "tle": {"line1": "1 30505U 99025AHT 25339.76333042  .00007166  00000+0  31987-2 0  9997", "line2": "2 30505  98.9271  59.3396 0063039 261.9625 224.5063 14.21956010968248"}}, "geometry": {"type": "Point", "coordinates": [-108.50734831083497, 51.26079806181047]}}, {"type": "Feature", "properties": {"norad_id": 30506, "name": "FENGYUN 1C DEB", "group": "fengyun-1c-debris", "lat": 80.93696621185292, "lon": -119.06035474911704, "alt_km": 853.5382119510232, "timestamp": "2025-12-06T14:35:37.402904+00:00", "meta": {"OBJECT_NAME": "FENGYUN 1C DEB", "OBJECT_ID": "1999-025AHU", "EPOCH": "2025-12-06T06:16:12.656640", "MEAN_MOTION": 14.08639429, "ECCENTRICITY": 0.0070597, "INCLINATION": 98.7569, "RA_OF_ASC_NODE": 345.5222, "ARG_OF_PERICENTER": 6.3021, "MEAN_ANOMALY": 127.4589, "EPHEMERIS_TYPE": 0, "CLASSIFICATION_TYPE": "U", "NORAD_CAT_ID": 30506, "ELEMENT_SET_NO": 999, "REV_AT_EPOCH": 96730, "BSTAR": 0.00063759588, "MEAN_MOTION_DOT": 1.079e-05, "MEAN_MOTION_DDOT": 0}, "tle": {"line1": "1 30506U 99025AHU 25340.26125760  .00001079  00000+0  63760-3 0  9993", "line2": "2 30506  98.7569 345.5222 0070597   6.3021 127.4589 14.08639429967300"}}, "geometry": {"type": "Point", "coordinates": [-119.06035474911704, 80.93696621185292]}}, {"type": "Feature", "properties": {"norad_id": 30507, "name": "FENGYUN 1C DEB", "group": "fengyun-1c-debris", "lat": 70.75033049079367, "lon": -107.91738808814038, "alt_km": 834.8243845265661, "timestamp": "2025-12-06T14:35:37.402914+00:00", "meta": {"OBJECT_NAME": "FENGYUN 1C DEB", "OBJECT_ID": "1999-025AHV", "EPOCH": "2025-12-05T04:24:13.504032", "MEAN_MOTION": 14.13121597, "ECCENTRICITY": 0.01282841, "INCLINATION": 99.0138, "RA_OF_ASC_NODE": 43.6123, "ARG_OF_PERICENTER": 197.4943, "MEAN_ANOMALY": 227.815, "EPHEMERIS_TYPE": 0, "CLASSIFICATION_TYPE": "U", "NORAD_CAT_ID": 30507, "ELEMENT_SET_NO": 999, "REV_AT_EPOCH": 96391, "BSTAR": 0.0024463716, "MEAN_MOTION_DOT": 4.902e-05, "MEAN_MOTION_DDOT": 0}, "tle": {"line1": "1 30507U 99025AHV 25339.18348963  .00004902  00000+0  24464-2 0  9990", "line2": "2 30507  99.0138  43.6123 0128284 197.4943 227.8150 14.13121597963915"}}, "geometry": {"type": "Point", "coordinates": [-107.91738808814038, 70.75033049079367]}}, {"type": "Feature", "properties": {"norad_id": 30509, "name": "FENGYUN 1C DEB", "group": "fengyun-1c-debris", "lat": 42.45195128768065, "lon": -154.9969125876852, "alt_km": 805.7985132286503, "timestamp": "2025-12-06T14:35:37.402924+00:00", "meta": {"OBJECT_NAME": "FENGYUN 1C DEB", "OBJECT_ID": "1999-025AHX", "EPOCH": "2025-12-06T03:09:33.027264", "MEAN_MOTION": 14.07583706, "ECCENTRICITY": 0.01011219, "INCLINATION": 98.4647, "RA_OF_ASC_NODE": 212.386, "ARG_OF_PERICENTER": 82.0987, "MEAN_ANOMALY": 68.8045, "EPHEMERIS_TYPE": 0, "CLASSIFICATION_TYPE": "U", "NORAD_CAT_ID": 30509, "ELEMENT_SET_NO": 999, "REV_AT_EPOCH": 95629, "BSTAR": 0.0030389485, "MEAN_MOTION_DOT": 5.337e-05, "MEAN_MOTION_DDOT": 0}, "tle": {"line1": "1 30509U 99025AHX 25340.13163226  .00005337  00000+0  30389-2 0  9992", "line2": "2 30509  98.4647 212.3860 0101121  82.0987  68.8045 14.07583706956292"}}, "geometry": {"type": "Point", "coordinates": [-154.9969125876852, 42.45195128768065]}}, {"type": "Feature", "properties": {"norad_id": 30510, "name": "FENGYUN 1C DEB", "group": "fengyun-1c-debris", "lat": -20.732284497161753, "lon": -4.0246588003614505, "alt_km": 906.6755393557032, "timestamp": "2025-12-06T14:35:37.402934+00:00", "meta": {"OBJECT_NAME": "FENGYUN 1C DEB", "OBJECT_ID": "1999-025AHY", "EPOCH": "2025-12-05T23:32:24.131904", "MEAN_MOTION": 14.12799098, "ECCENTRICITY": 0.00786292, "INCLINATION": 99.2446, "RA_OF_ASC_NODE": 351.7938, "ARG_OF_PERICENTER": 185.1453, "MEAN_ANOMALY": 205.1517, "EPHEMERIS_TYPE": 0, "CLASSIFICATION_TYPE": "U", "NORAD_CAT_ID": 30510, "ELEMENT_SET_NO": 999, "REV_AT_EPOCH": 96479, "BSTAR": 0.0023260727, "MEAN_MOTION_DOT": 4.405e-05, "MEAN_MOTION_DDOT": 0}, "tle": {"line1": "1 30510U 99025AHY 25339.98083486  .00004405  00000+0  23261-2 0  9990", "line2": "2 30510  99.2446 351.7938 0078629 185.1453 205.1517 14.12799098964796"}}, "geometry": {"type": "Point", "coordinates": [-4.0246588003614505, -20.732284497161753]}}, {"type": "Feature", "properties": {"norad_id": 30514, "name": "FENGYUN 1C DEB", "group": "fengyun-1c-debris", "lat": 8.916909821333698, "lon": 2.968373589727769, "alt_km": 805.2984976570142, "timestamp": "2025-12-06T14:35:37.402944+00:00", "meta": {"OBJECT_NAME": "FENGYUN 1C DEB", "OBJECT_ID": "1999-025AJC", "EPOCH": "2025-12-05T23:28:59.635200", "MEAN_MOTION": 14.34322512, "ECCENTRICITY": 0.01745964, "INCLINATION": 98.4134, "RA_OF_ASC_NODE": 3.6858, "ARG_OF_PERICENTER": 114.12, "MEAN_ANOMALY": 247.8355, "EPHEMERIS_TYPE": 0, "CLASSIFICATION_TYPE": "U", "NORAD_CAT_ID": 30514, "ELEMENT_SET_NO": 999, "REV_AT_EPOCH": 98128, "BSTAR": 0.00092323419, "MEAN_MOTION_DOT": 3.035e-05, "MEAN_MOTION_DDOT": 0}, "tle": {"line1": "1 30514U 99025AJC 25339.97846800  .00003035  00000+0  92323-3 0  9994", "line2": "2 30514  98.4134   3.6858 0174596 114.1200 247.8355 14.34322512981284"}}, "geometry": {"type": "Point", "coordinates": [2.968373589727769, 8.916909821333698]}}]}